GLOBALSTAR M094         
1 39074U 13005C   25086.85470444 -.00000103  00000+0  54175-5 0  9990
2 39074  51.9955  69.7467 0000674  85.0997 274.9946 12.62269338562100
GLOBALSTAR M096         
1 39075U 13005D   25086.63041697 -.00000073  00000+0  17125-3 0  9999
2 39075  52.0053 118.8835 0000608  90.8037 269.2899 12.62269842560992
GLOBALSTAR M078         
1 39076U 13005E   25086.76183856 -.00000199  00000+0 -53102-3 0  9993
2 39076  51.9871 203.1007 0000915  41.0649 319.0286 12.62259520559631
GLOBALSTAR M095         
1 39077U 13005F   25086.63022100 -.00000100  00000+0  21722-4 0  9999
2 39077  51.9790 200.7409 0000940  78.2030 281.8942 12.62268171559834
GLOBALSTAR M087         
1 52888U 22064A   25086.89842927 -.00000072  00000+0  17996-3 0  9999
2 52888  51.9815 341.3296 0000818  72.8216 287.2740 12.62269933134778
